OBJECT_NAME,OBJECT_ID,EPOCH,MEAN_MOTION,ECCENTRICITY,INCLINATION,RA_OF_ASC_NODE,ARG_OF_PERICENTER,MEAN_ANOMALY,EPHEMERIS_TYPE,CLASSIFICATION_TYPE,NORAD_CAT_ID,ELEMENT_SET_NO,REV_AT_EPOCH,BSTAR,MEAN_MOTION_DOT,MEAN_MOTION_DDOT
STARLINK-31066,2023-211K,2026-07-11T05:20:50.637120,15.27560505,.00016207,43.0032,253.4117,263.0897,96.9770,0,U,58676,999,14092,-.51264325E-4,-.1672E-4,0
STARLINK-31058,2023-211L,2026-07-10T03:15:23.336064,15.27590626,.00014719,43.0025,113.5512,263.8397,96.2287,0,U,58677,999,14119,-.3145095E-5,-.349E-5,0
STARLINK-31125,2023-211M,2026-07-11T03:21:03.611232,15.27569835,.00008008,43.0023,108.1914,317.6717,42.4073,0,U,58678,999,14251,.36217851E-4,.735E-5,0
STARLINK-31110,2023-211N,2026-07-11T04:27:27.878976,15.27571305,.00003461,42.9983,107.6687,163.8047,196.2816,0,U,58679,999,14135,.77892501E-4,.1882E-4,0
STARLINK-31112,2023-211P,2026-07-11T03:04:23.979648,15.27574671,.00005057,42.9963,108.1016,17.2012,342.8856,0,U,58680,999,14252,-.611413E-5,-.43E-5,0
STARLINK-31147,2023-211Q,2026-07-11T03:26:34.129248,15.27581774,.0002948,43.0071,108.2216,270.3289,89.7225,0,U,58681,999,14134,-.9412965E-5,-.522E-5,0
STARLINK-31144,2023-211R,2026-07-11T03:59:39.761088,15.27585505,.00026158,43.0132,107.5147,244.0188,116.0395,0,U,58682,999,14135,.79286031E-4,.192E-4,0
STARLINK-31095,2023-211S,2026-07-10T04:12:45.088704,15.27583323,.00012485,43.0042,113.8520,264.9772,95.0937,0,U,58683,999,14246,-.79213233E-4,-.2441E-4,0
STARLINK-31107,2023-211T,2026-07-09T23:39:31.741056,15.27591105,.00011025,42.9988,115.0038,213.8532,146.2249,0,U,58684,999,14116,-.1139543E-3,-.3397E-4,0
STARLINK-31121,2023-211U,2026-07-11T02:31:04.660320,15.27600980,.0001828,43.0031,107.9226,252.5225,107.5427,0,U,58685,999,14134,-.18301644E-3,-.5298E-4,0
STARLINK-31137,2023-211V,2026-07-11T03:22:53.613120,15.27588460,.00014538,43.0049,108.1966,333.9089,26.1689,0,U,58686,999,14134,.39973633E-3,.10756E-3,0
STARLINK-31106,2023-211Y,2026-07-11T04:46:06.301920,15.27569620,.00123879,42.9673,107.8055,51.7276,308.4687,0,U,58689,999,14135,-.14845122E-3,-.4358E-4,0
STARLINK-11075 [DTC],2024-002B,2026-07-11T17:20:28.104000,15.69994835,.0000763,53.1592,22.1832,103.6480,256.4623,0,U,58706,999,14592,.76665E-4,.8818E-4,0
STARLINK-11078 [DTC],2024-002F,2026-07-11T17:49:21.431424,15.69705241,.0000942,53.1586,22.3121,46.8868,313.2229,0,U,58710,999,14592,-.40496E-5,-.1079E-4,0
STARLINK-31031,2024-002G,2026-07-11T16:43:15.826080,15.34393404,.0001038,53.1607,12.3633,90.7991,269.3131,0,U,58711,999,14102,.32089E-4,.708E-5,0
STARLINK-30973,2024-002J,2026-07-11T18:24:37.728576,15.30197052,.0000786,53.1609,13.5032,96.0108,264.0983,0,U,58713,999,14101,.19261E-4,.212E-5,0
STARLINK-31100,2024-002K,2026-07-11T18:29:11.104224,15.30187394,.0000607,53.1610,13.5211,62.5282,297.5781,0,U,58714,999,14101,-.4202E-4,-.1602E-4,0
STARLINK-31098,2024-002M,2026-07-11T18:32:13.912800,15.30194432,.0000693,53.1608,13.5299,120.2007,239.9062,0,U,58716,999,14101,.86771E-5,-.102E-5,0
STARLINK-31093,2024-002N,2026-07-08T23:18:34.288416,15.30224365,.00005532,53.1608,26.6379,83.2606,276.8458,0,U,58717,999,14058,-.2364547E-3,-.736E-4,0
STARLINK-31097,2024-002P,2026-07-11T18:38:18.322080,15.30196861,.0001078,53.1611,13.5571,87.7251,272.3873,0,U,58718,999,14101,.15589E-4,.103E-5,0
STARLINK-31051,2024-002Q,2026-07-11T18:45:54.235008,15.30197667,.0000925,53.1612,13.5890,86.6756,273.4350,0,U,58719,999,14101,.31005E-4,.559E-5,0
STARLINK-30972,2024-002S,2026-07-11T12:09:55.570752,15.30242651,.00004269,53.1598,14.7147,247.5244,112.5712,0,U,58721,999,14097,.44881199E-3,.12974E-3,0
