[ {"name": "STARLINK-31066", "line1": "1 58676U 23211K   26192.22280830 -.00001672  00000+0 -51264-4 0  9995", "line2": "2 58676  43.0032 253.4117 0001620 263.0897  96.9770 15.27560505140923"}, {"name": "STARLINK-31058", "line1": "1 58677U 23211L   26191.13568676 -.00000349  00000+0 -31451-5 0  9999", "line2": "2 58677  43.0025 113.5512 0001471 263.8397  96.2287 15.27590626141191"}, {"name": "STARLINK-31125", "line1": "1 58678U 23211M   26192.13962513  .00000735  00000+0  36218-4 0  9991", "line2": "2 58678  43.0023 108.1914 0000800 317.6717  42.4073 15.27569835142516"}, {"name": "STARLINK-31110", "line1": "1 58679U 23211N   26192.18573934  .00001882  00000+0  77893-4 0  9990", "line2": "2 58679  42.9983 107.6687 0000346 163.8047 196.2816 15.27571305141352"}, {"name": "STARLINK-31112", "line1": "1 58680U 23211P   26192.12805532 -.00000430  00000+0 -61141-5 0  9998", "line2": "2 58680  42.9963 108.1016 0000505  17.2012 342.8856 15.27574671142527"}, {"name": "STARLINK-31147", "line1": "1 58681U 23211Q   26192.14345057 -.00000522  00000+0 -94130-5 0  9998", "line2": "2 58681  43.0071 108.2216 0002948 270.3289  89.7225 15.27581774141342"}, {"name": "STARLINK-31144", "line1": "1 58682U 23211R   26192.16643242  .00001920  00000+0  79286-4 0  9993", "line2": "2 58682  43.0132 107.5147 0002615 244.0188 116.0395 15.27585505141352"}, {"name": "STARLINK-31095", "line1": "1 58683U 23211S   26191.17552186 -.00002441  00000+0 -79213-4 0  9991", "line2": "2 58683  43.0042 113.8520 0001248 264.9772  95.0937 15.27583323142466"}, {"name": "STARLINK-31107", "line1": "1 58684U 23211T   26190.98578404 -.00003397  00000+0 -11395-3 0  9998", "line2": "2 58684  42.9988 115.0038 0001102 213.8532 146.2249 15.27591105141166"}, {"name": "STARLINK-31121", "line1": "1 58685U 23211U   26192.10491505 -.00005298  00000+0 -18302-3 0  9998", "line2": "2 58685  43.0031 107.9226 0001828 252.5225 107.5427 15.27600980141341"}, {"name": "STARLINK-31137", "line1": "1 58686U 23211V   26192.14089830  .00010756  00000+0  39974-3 0  9998", "line2": "2 58686  43.0049 108.1966 0001453 333.9089  26.1689 15.27588460141345"}, {"name": "STARLINK-31106", "line1": "1 58689U 23211Y   26192.19868405 -.00004358  00000+0 -14845-3 0  9992", "line2": "2 58689  42.9673 107.8055 0012387  51.7276 308.4687 15.27569620141357"}, {"name": "STARLINK-11075 [DTC]", "line1": "1 58706U 24002B   26192.72254750  .00008818  00000+0  76665-4 0  9994", "line2": "2 58706  53.1592  22.1832 0000762 103.6480 256.4623 15.69994835145926"}, {"name": "STARLINK-11078 [DTC]", "line1": "1 58710U 24002F   26192.74260916 -.00001079  00000+0 -40496-5 0  9990", "line2": "2 58710  53.1586  22.3121 0000941  46.8868 313.2229 15.69705241145929"}, {"name": "STARLINK-31031", "line1": "1 58711U 24002G   26192.69671095  .00000708  00000+0  32089-4 0  9993", "line2": "2 58711  53.1607  12.3633 0001037  90.7991 269.3131 15.34393404141029"}, {"name": "STARLINK-30973", "line1": "1 58713U 24002J   26192.76710335  .00000212  00000+0  19261-4 0  9991", "line2": "2 58713  53.1609  13.5032 0000786  96.0108 264.0983 15.30197052141011"}, {"name": "STARLINK-31100", "line1": "1 58714U 24002K   26192.77026741 -.00001602  00000+0 -42020-4 0  9999", "line2": "2 58714  53.1610  13.5211 0000607  62.5282 297.5781 15.30187394141011"}, {"name": "STARLINK-31098", "line1": "1 58716U 24002M   26192.77238326 -.00000102  00000+0  86771-5 0  9990", "line2": "2 58716  53.1608  13.5299 0000693 120.2007 239.9062 15.30194432141011"}, {"name": "STARLINK-31093", "line1": "1 58717U 24002N   26189.97123019 -.00007360  00000+0 -23645-3 0  9994", "line2": "2 58717  53.1608  26.6379 0000553  83.2606 276.8458 15.30224365140583"}, {"name": "STARLINK-31097", "line1": "1 58718U 24002P   26192.77660095  .00000103  00000+0  15589-4 0  9992", "line2": "2 58718  53.1611  13.5571 0001077  87.7251 272.3873 15.30196861141014"}, {"name": "STARLINK-31051", "line1": "1 58719U 24002Q   26192.78187773  .00000559  00000+0  31005-4 0  9997", "line2": "2 58719  53.1612  13.5890 0000925  86.6756 273.4350 15.30197667141016"}, {"name": "STARLINK-30972", "line1": "1 58721U 24002S   26192.50689318  .00012974  00000+0  44881-3 0  9991", "line2": "2 58721  53.1598  14.7147 0000426 247.5244 112.5712 15.30242651140979"}]